#aV2019  1  4  0  0  0.00000000     288 DD+AD WGS84 FIT  NGA
## 2034 432000.00000000   300.00000000 58487 0.0000000000000
+   31     1  2  3  5  6  7  8  9 10 11 12 13 14 15 16 17 18
+         19 20 21 22 23 24 25 26 27 28 29 30 31 32  0  0  0
+          0  0  0  0  0  0  0  0  0  0  0  0  0  0  0  0  0
+          0  0  0  0  0  0  0  0  0  0  0  0  0  0  0  0  0
+          0  0  0  0  0  0  0  0  0  0  0  0  0  0  0  0  0
++         2  2  2  2  2  2  2  2  2  2  2  2  2  2  2  2  2
++         2  2  2  2  2  2  2  2  2  2  2  2  2  2  0  0  0
++         0  0  0  0  0  0  0  0  0  0  0  0  0  0  0  0  0
++         0  0  0  0  0  0  0  0  0  0  0  0  0  0  0  0  0
++         0  0  0  0  0  0  0  0  0  0  0  0  0  0  0  0  0
%c cc cc ccc ccc cccc cccc cccc cccc ccccc ccccc ccccc ccccc
%c cc cc ccc ccc cccc cccc cccc cccc ccccc ccccc ccccc ccccc
%f  0.0000000  0.000000000  0.00000000000  0.000000000000000
%f  0.0000000  0.000000000  0.00000000000  0.000000000000000
%i    0    0    0    0      0      0      0      0         0
%i    0    0    0    0      0      0      0      0         0
/*      NGA, ST. LOUIS,MO.                                  
/*   EPHEMERIS COMPUTED FROM 2 DAYS OF DATA                 
/*   EPOCHA v3 SMOOTHER                                     
/*   G1762 IERS2010 SATAF SATAPC                            
*  2019  1  4  7 20  0.00000000
P  1  21626.201510  12394.157889   9435.108469   -139.653683                    
V  1   7223.078890   9916.269907 -28764.217907     -0.062185                    
P  2 -11904.553052 -21184.659826  11547.347736   -103.902075                    
V  2  11862.414191   7250.045250  26729.393311     -0.102014                    
P  3  14483.579228   4551.101808  21755.263131    174.803440                    
V  3  -6952.287323  26826.065685   -913.600397      0.027449                    
P  5  -4482.837160 -22583.041766 -13183.544895      0.678426                    
V  5   6315.844821 -15631.917240  25053.979546      0.001311                    
P  6    287.565663 -18145.395553  19426.464956    303.656418                    
V  6  18376.687908  16320.312318  15023.083701     -0.073627                    
P  7  18221.243192   -842.925564 -19219.333499     58.117036                    
V  7  16606.848032  18442.575589  14298.023934     -0.070521                    
P  8  17183.416199   8201.560733 -18543.256582   -127.890197                    
V  8 -22248.460285   7854.900726 -16919.506008     -0.012724                    
P  9  25439.091432  -7652.830756   -228.127913    475.786103                    
V  9   1096.320577   2901.720946  31550.542682     -0.043735                    
P 10 -11181.165538  22757.479855  -7525.672130    141.301092                    
V 10   -307.864008 -10050.539983 -29938.802111     -0.061302                    
P 11  24580.629967   9704.242227  -1255.464778   -680.023179                    
V 11  -2488.055286   4051.231748 -30629.859613      0.050534                    
P 12 -12408.118153  -8469.493089  21725.279404    279.147146                    
V 12   8957.227852 -26496.243216  -4991.641291     -0.030621                    
P 13  -9268.631906 -13324.749054 -21147.843211    -79.456945                    
V 13  26149.063604  -4651.887204  -8545.345969      0.012325                    
P 14  -7491.020155  15872.889866  20184.246742    -93.689664                    
V 14 -24768.744266   3719.516102 -12477.642036      0.005541                    
P 15 -20240.245582  -5711.759635 -16698.362960   -333.641078                    
V 15  18591.783901  -9308.059504 -19255.443512      0.015296                    
P 16   1884.502265  22476.327083 -13833.468098    -10.635860                    
V 16  -7477.406491  15834.982208  25425.245680     -0.022934                    
P 17  16946.139703 -14115.268738  15130.787126     -9.460727                    
V 17  18366.728013  -2587.865994 -23728.950016      0.050177                    
P 18  19450.212079  18197.310518   -889.701492     12.355147                    
V 18  -2377.993945   1827.019941 -31455.904079      0.037986                    
P 19   8304.634751 -15038.126730  19996.036033   -366.957539                    
V 19  25718.719052  -3600.189580 -13092.705433      0.039422                    
P 20 -14140.826235  15913.533540 -15917.871442    520.733644                    
V 20    154.831079 -20309.909773 -20725.723998      0.004389                    
P 21 -16040.910409   4864.999609 -19780.303357   -275.362407                    
V 21 -19429.539241 -18788.511675  10793.792226      0.068295                    
P 22  12744.577282  12711.683384  19774.680949   -614.737059                    
V 22  -5908.770633  24053.474656 -11748.650169     -0.088971                    
P 23  25027.833386    -48.082800   9788.806879   -201.573018                    
V 23 -10646.847553   5920.452476  27729.049564      0.011282                    
P 24 -21749.474755 -14781.337988   4677.633594    -60.359115                    
V 24  -2454.889983  -6385.618786 -30330.347578     -0.004098                    
P 25 -15730.506829   4388.420076  20700.822870   -700.955593                    
V 25   5828.943954 -26123.289732  10122.137905     -0.054756                    
P 26  -3098.587321  25980.351775  -4025.380607     86.728993                    
V 26  -4220.151080   4287.120090  31146.782543      0.106756                    
P 27   6961.469660  13399.753686 -21955.532084    -43.170155                    
V 27 -26521.920553   7632.052264  -3493.692052     -0.063415                    
P 28  13230.049873 -21390.223612  -8042.909239    760.839655                    
V 28  -1775.562271  11067.372360 -29970.207672      0.012566                    
P 29 -26154.227035   3621.281229   2850.985443    300.900398                    
V 29   3133.469046  -2749.490775  32010.992035     -0.082933                    
P 30  10226.285178 -11864.200183 -21425.971350    -30.369300                    
V 30  18841.180064  19790.593566  -2134.030224     -0.060420                    
P 31   1687.924232  19555.499014  17696.765598     68.176457                    
V 31 -17038.090783 -14985.219266  18628.929963     -0.026487                    
P 32 -14392.956157  15741.660736  15801.421324   -290.083091                    
V 32 -19842.656834   3537.485594 -21749.275881      0.166080                    
EOF
